[{"OBJECT_NAME":"COSMOS 2502","OBJECT_ID":"2014-086A","EPOCH":"2026-03-09T23:20:55.492800","MEAN_MOTION":13.97809057,"ECCENTRICITY":0.0007913,"INCLINATION":67.151,"RA_OF_ASC_NODE":248.8108,"ARG_OF_PERICENTER":280.0758,"MEAN_ANOMALY":79.9434,"EPHEMERIS_TYPE":0,"CLASSIFICATION_TYPE":"U","NORAD_CAT_ID":40358,"ELEMENT_SET_NO":999,"REV_AT_EPOCH":57008,"BSTAR":4.1810399e-5,"MEAN_MOTION_DOT":-1.6e-7,"MEAN_MOTION_DDOT":0},{"OBJECT_NAME":"METEOR 2-11 DEB","OBJECT_ID":"1984-072Z","EPOCH":"2026-02-24T09:07:31.764000","MEAN_MOTION":14.00787671,"ECCENTRICITY":0.00140734,"INCLINATION":82.5074,"RA_OF_ASC_NODE":91.1482,"ARG_OF_PERICENTER":160.2034,"MEAN_ANOMALY":199.9685,"EPHEMERIS_TYPE":0,"CLASSIFICATION_TYPE":"U","NORAD_CAT_ID":60004,"ELEMENT_SET_NO":999,"REV_AT_EPOCH":44842,"BSTAR":0.0014468972,"MEAN_MOTION_DOT":2.174e-5,"MEAN_MOTION_DDOT":0}]
